[{"OBJECT_NAME":"OBJECT N","OBJECT_ID":"2024-205N","EPOCH":"2026-03-09T22:36:13.267872","MEAN_MOTION":15.33862123,"ECCENTRICITY":0.00094432,"INCLINATION":97.4211,"RA_OF_ASC_NODE":148.9295,"ARG_OF_PERICENTER":39.7652,"MEAN_ANOMALY":320.4281,"EPHEMERIS_TYPE":0,"CLASSIFICATION_TYPE":"U","NORAD_CAT_ID":61906,"ELEMENT_SET_NO":999,"REV_AT_EPOCH":7364,"BSTAR":0.00078005624,"MEAN_MOTION_DOT":0.00025559,"MEAN_MOTION_DDOT":0},{"OBJECT_NAME":"STARLINK-34185","OBJECT_ID":"2025-144W","EPOCH":"2026-03-09T13:09:33.638400","MEAN_MOTION":15.30178478,"ECCENTRICITY":0.00011685,"INCLINATION":53.159,"RA_OF_ASC_NODE":181.4499,"ARG_OF_PERICENTER":63.7059,"MEAN_ANOMALY":296.4061,"EPHEMERIS_TYPE":0,"CLASSIFICATION_TYPE":"U","NORAD_CAT_ID":64744,"ELEMENT_SET_NO":999,"REV_AT_EPOCH":3969,"BSTAR":0.0014184598,"MEAN_MOTION_DOT":0.0004186,"MEAN_MOTION_DDOT":0}]
